KUIPER-00071            
1 64818U 25151C   25270.57165898  .00048969  00000+0  63877-2 0  9994
2 64818  51.9000 304.3807 0008021  55.9316 304.2407 14.80033893 11112
KUIPER-00072            
1 64819U 25151D   25270.91668981 -.00649543  00000+0 -21083-1 0  9993
2 64819  51.8798 292.3002 0008003  50.7205 283.0518 15.33673201  5829
KUIPER-00073            
1 64820U 25151E   25270.91668981  .00028202  00000+0  36993-2 0  9993
2 64820  51.8999 302.8564 0013006  75.8132 143.6293 14.80033629  5387
KUIPER-00074            
1 64821U 25151F   25270.91668981  .00062908  00000+0  34758-2 0  9992
2 64821  51.8846 293.7666 0013264  79.8618 204.0996 15.13239222  5857
KUIPER-00075            
1 64822U 25151G   25270.62688281  .00034165  00000+0  90355-3 0  9996
2 64822  51.8772 293.3193 0006145  41.7734 318.3721 15.38070047 11277
KUIPER-00076            
1 64823U 25151H   25270.91668981 -.01190573  00000+0 -81078-1 0  9993
2 64823  51.8854 294.9848 0005972  67.2964  55.2294 15.08979286  5521
KUIPER-00077            
1 64824U 25151J   25270.91668981  .00030303  00000+0  29880-2 0  9999
2 64824  51.8958 298.2321 0006663  34.2537 307.9690 14.91744913  5376
KUIPER-00078            
1 64825U 25151K   25270.91668981 -.00882282  00000+0 -73875-1 0  9995
2 64825  51.9165 296.4564 0009642  94.8984  31.6375 15.00871726  5886
